NORAD_CAT_ID,OBJECT_NAME,OBJECT_TYPE,EPOCH,MEAN_MOTION,ECCENTRICITY,INCLINATION,RA_OF_ASC_NODE,ARG_OF_PERICENTER,MEAN_ANOMALY,BSTAR,MEAN_MOTION_DOT,MEAN_MOTION_DDOT,TLE_LINE0,TLE_LINE1,TLE_LINE2,SEMIMAJOR_AXIS,PERIOD,APOGEE,PERIGEE,DECAYED
49456.0,STARLINK-3124,PAYLOAD,2023-11-17 12:04:57,15.08851449,0.0001419,53.2187,44.3802,90.9948,269.1207,0.00010385,1.366e-05,0.0,0 STARLINK-3124,1 49456U 21104BA  23321.50344599  .00001366  00000-0  10385-3 0  9992,2 49456  53.2187  44.3802 0001419  90.9948 269.1207 15.08851449112557,6917.845,95.437,540.692,538.729,0.0
49456.0,STARLINK-3124,PAYLOAD,2023-11-17 15:15:43,15.08853307,0.0001472,53.2189,43.7852,91.6865,268.4296,0.00011947,1.615e-05,0.0,0 STARLINK-3124,1 49456U 21104BA  23321.63592341  .00001615  00000-0  11947-3 0  9998,2 49456  53.2189  43.7852 0001472  91.6865 268.4296 15.08853307111501,6917.84,95.437,540.723,538.686,0.0
49456.0,STARLINK-3124,PAYLOAD,2023-11-17 23:12:40,15.08839209,0.0001443,53.2185,42.2989,90.4641,269.6517,3.8087e-06,-2.27e-06,0.0,0 STARLINK-3124,1 49456U 21104BA  23321.96713448 -.00000227  00000-0  38087-5 0  9992,2 49456  53.2185  42.2989 0001443  90.4641 269.6517 15.08839209112627,6917.883,95.438,540.746,538.75,0.0
49456.0,STARLINK-3124,PAYLOAD,2023-11-18 11:55:45,15.08835278,0.0001536,53.2183,39.9196,95.9683,264.1484,1.6088e-05,-3.2e-07,0.0,0 STARLINK-3124,1 49456U 21104BA  23322.49705855 -.00000032  00000-0  16088-4 0  9994,2 49456  53.2183  39.9196 0001536  95.9683 264.1484 15.08835278111632,6917.895,95.438,540.822,538.697,0.0
49456.0,STARLINK-3124,PAYLOAD,2023-11-18 15:06:32,15.08838359,0.0001406,53.2192,39.3252,95.459,264.6562,-1.24e-05,-4.85e-06,0.0,0 STARLINK-3124,1 49456U 21104BA  23322.62953745 -.00000485  00000-0 -12400-4 0  9999,2 49456  53.2192  39.3252 0001406  95.4590 264.6562 15.08838359111654,6917.885,95.438,540.723,538.778,0.0
49456.0,STARLINK-3124,PAYLOAD,2023-11-19 11:46:32,15.08843339,0.0001376,53.2184,35.4608,86.9846,273.1303,1.8611e-05,8e-08,0.0,0 STARLINK-3124,1 49456U 21104BA  23323.49065416  .00000008  00000-0  18611-4 0  9993,2 49456  53.2184  35.4608 0001376  86.9846 273.1303 15.08843339112857,6917.87,95.437,540.687,538.783,0.0
49456.0,STARLINK-3124,PAYLOAD,2023-11-20 13:12:42,15.08843377,0.0001346,53.2188,30.7021,89.6574,270.4572,0.00015324,2.152e-05,0.0,0 STARLINK-3124,1 49456U 21104BA  23324.55049237  .00002152  00000-0  15324-3 0  9993,2 49456  53.2188  30.7021 0001346  89.6574 270.4572 15.08843377111942,6917.87,95.437,540.666,538.804,0.0
49456.0,STARLINK-3124,PAYLOAD,2023-11-20 21:09:38,15.08835448,0.0001662,53.219,29.2144,85.5,274.6182,6.9068e-05,8.11e-06,0.0,0 STARLINK-3124,1 49456U 21104BA  23324.88170085  .00000811  00000-0  69068-4 0  9990,2 49456  53.2190  29.2144 0001662  85.5000 274.6182 15.08835448111992,6917.894,95.438,540.909,538.61,0.0
49456.0,STARLINK-3124,PAYLOAD,2023-11-21 13:03:29,15.08846078,0.0001426,53.2194,26.2424,90.8034,269.3121,9.8745e-05,1.284e-05,0.0,0 STARLINK-3124,1 49456U 21104BA  23325.54409438  .00001284  00000-0  98745-4 0  9990,2 49456  53.2194  26.2424 0001426  90.8034 269.3121 15.08846078112095,6917.862,95.437,540.713,538.74,0.0
49456.0,STARLINK-3124,PAYLOAD,2023-11-22 12:54:16,15.08856561,0.0001555,53.2193,21.7808,90.4046,269.7125,0.00014515,2.024e-05,0.0,0 STARLINK-3124,1 49456U 21104BA  23326.53768696  .00002024  00000-0  14515-3 0  9999,2 49456  53.2193  21.7808 0001555  90.4046 269.7125 15.08856561112245,6917.83,95.437,540.77,538.619,0.0
49456.0,STARLINK-3124,PAYLOAD,2023-11-23 00:01:58,15.08837788,0.0001543,53.2186,19.7001,106.1568,253.9594,2.5917e-05,1.24e-06,0.0,0 STARLINK-3124,1 49456U 21104BA  23327.00137649  .00000124  00000-0  25917-4 0  9998,2 49456  53.2186  19.7001 0001543 106.1568 253.9594 15.08837788113381,6917.887,95.438,540.82,538.685,0.0
49456.0,STARLINK-3124,PAYLOAD,2023-11-23 12:45:03,15.08847992,0.0001681,53.2179,17.3194,113.6008,246.5161,0.00012598,1.718e-05,0.0,0 STARLINK-3124,1 49456U 21104BA  23327.53129213  .00001718  00000-0  12598-3 0  9994,2 49456  53.2179  17.3194 0001681 113.6008 246.5161 15.08847992112391,6917.856,95.437,540.884,538.558,0.0
49456.0,STARLINK-3124,PAYLOAD,2023-11-24 03:03:33,15.0882408,0.0001361,53.2186,14.6461,90.2006,269.9142,-0.00026099,-4.437e-05,0.0,0 STARLINK-3124,1 49456U 21104BA  23328.12746600 -.00004437  00000-0 -26099-3 0  9999,2 49456  53.2186  14.6461 0001361  90.2006 269.9142 15.08824080113559,6917.929,95.439,540.736,538.853,0.0
49456.0,STARLINK-3124,PAYLOAD,2023-11-24 11:00:29,15.08830937,0.0001631,53.2178,13.1597,87.9755,272.1424,-0.00010828,-2.01e-05,0.0,0 STARLINK-3124,1 49456U 21104BA  23328.45866914 -.00002010  00000-0 -10828-3 0  9994,2 49456  53.2178  13.1597 0001631  87.9755 272.1424 15.08830937112532,6917.908,95.438,540.901,538.645,0.0
49456.0,STARLINK-3124,PAYLOAD,2023-11-25 02:54:20,15.08839832,0.0001575,53.2174,10.1837,99.6398,260.4772,0.00025632,3.794e-05,0.0,0 STARLINK-3124,1 49456U 21104BA  23329.12106866  .00003794  00000-0  25632-3 0  9999,2 49456  53.2174  10.1837 0001575  99.6398 260.4772 15.08839832113701,6917.881,95.438,540.835,538.656,0.0
49456.0,STARLINK-3124,PAYLOAD,2023-11-25 09:15:52,15.08854206,0.0001741,53.2171,8.9962,84.8095,275.3096,0.00062241,9.635e-05,0.0,0 STARLINK-3124,1 49456U 21104BA  23329.38602702  .00009635  00000-0  62241-3 0  9994,2 49456  53.2171   8.9962 0001741  84.8095 275.3096 15.08854206112678,6917.837,95.437,540.906,538.498,0.0
49456.0,STARLINK-3124,PAYLOAD,2023-11-26 09:06:39,15.08860796,0.0001961,53.218,4.5372,96.3274,263.7941,0.00043604,6.662e-05,0.0,0 STARLINK-3124,1 49456U 21104BA  23330.37961816  .00006662  00000-0  43604-3 0  9998,2 49456  53.2180   4.5372 0001961  96.3274 263.7941 15.08860796113892,6917.817,95.436,541.038,538.325,0.0
49456.0,STARLINK-3124,PAYLOAD,2023-11-26 23:25:07,15.08833695,0.0001947,53.2178,1.8608,103.0768,257.0441,-0.00024598,-4.2e-05,0.0,0 STARLINK-3124,1 49456U 21104BA  23330.97578595 -.00004200  00000-0 -24598-3 0  9991,2 49456  53.2178   1.8608 0001947 103.0768 257.0441 15.08833695113988,6917.9,95.438,541.112,538.418,0.0
49456.0,STARLINK-3124,PAYLOAD,2023-11-27 12:08:13,15.0884083,0.0001732,53.2177,359.4796,82.701,277.4179,-2.8897e-05,-7.48e-06,0.0,0 STARLINK-3124,1 49456U 21104BA  23331.50570742 -.00000748  00000-0 -28897-4 0  9997,2 49456  53.2177 359.4796 0001732  82.7010 277.4179 15.08840830112995,6917.878,95.438,540.941,538.545,0.0
49456.0,STARLINK-3124,PAYLOAD,2023-11-28 08:48:13,15.0885697,0.0001971,53.2186,355.6165,102.9098,257.2115,0.0003105,4.659e-05,0.0,0 STARLINK-3124,1 49456U 21104BA  23332.36682103  .00004659  00000-0  31050-3 0  9994,2 49456  53.2186 355.6165 0001971 102.9098 257.2115 15.08856970114191,6917.829,95.436,541.057,538.33,0.0
49456.0,STARLINK-3124,PAYLOAD,2023-11-29 02:17:29,15.08833595,0.0001916,53.2182,352.3453,78.0445,282.0761,0.00019499,2.816e-05,0.0,0 STARLINK-3124,1 49456U 21104BA  23333.09547499  .00002816  00000-0  19499-3 0  9999,2 49456  53.2182 352.3453 0001916  78.0445 282.0761 15.08833595114303,6917.9,95.438,541.09,538.439,0.0
49456.0,STARLINK-3124,PAYLOAD,2023-11-29 07:03:38,15.08835856,0.0001926,53.2189,351.4507,95.4455,264.6757,0.00023861,3.511e-05,0.0,0 STARLINK-3124,1 49456U 21104BA  23333.29419442  .00003511  00000-0  23861-3 0  9998,2 49456  53.2189 351.4507 0001926  95.4455 264.6757 15.08835856113262,6917.893,95.438,541.09,538.426,0.0
49456.0,STARLINK-3124,PAYLOAD,2023-11-30 10:05:11,15.08848256,0.000213,53.2189,346.3927,90.9239,269.1997,5.273e-05,5.51e-06,0.0,0 STARLINK-3124,1 49456U 21104BA  23334.42026977  .00000551  00000-0  52730-4 0  9990,2 49456  53.2189 346.3927 0002130  90.9239 269.1997 15.08848256114501,6917.855,95.437,541.194,538.247,0.0
49456.0,STARLINK-3124,PAYLOAD,2023-12-01 09:55:58,15.08843843,0.000199,53.2188,341.9312,101.4847,258.6368,0.00020513,2.978e-05,0.0,0 STARLINK-3124,1 49456U 21104BA  23335.41387672  .00002978  00000-0  20513-3 0  9990,2 49456  53.2188 341.9312 0001990 101.4847 258.6368 15.08843843114653,6917.869,95.437,541.11,538.357,0.0
49456.0,STARLINK-3124,PAYLOAD,2023-12-02 06:35:59,15.08866349,0.0002305,53.2183,338.0758,85.0538,275.0718,0.00061126,9.461e-05,0.0,0 STARLINK-3124,1 49456U 21104BA  23336.27498976  .00009461  00000-0  61126-3 0  9994,2 49456  53.2183 338.0758 0002305  85.0538 275.0718 15.08866349114786,6917.8,95.436,541.259,538.07,0.0
49456.0,STARLINK-3124,PAYLOAD,2023-12-03 09:37:34,15.0881832,0.0001824,53.2181,333.0137,116.341,243.777,-0.00029262,-4.939e-05,0.0,0 STARLINK-3124,1 49456U 21104BA  23337.40109070 -.00004939  00000-0 -29262-3 0  9996,2 49456  53.2181 333.0137 0001824 116.3410 243.7770 15.08818320114957,6917.947,95.439,541.073,538.55,0.0
49456.0,STARLINK-3124,PAYLOAD,2023-12-04 03:06:48,15.08836302,0.0002252,53.2207,329.7412,123.4495,236.6713,-0.00013463,-2.43e-05,0.0,0 STARLINK-3124,1 49456U 21104BA  23338.12973200 -.00002430  00000-0 -13463-3 0  9990,2 49456  53.2207 329.7412 0002252 123.4495 236.6713 15.08836302115063,6917.892,95.438,541.315,538.199,0.0
49456.0,STARLINK-3124,PAYLOAD,2023-12-04 09:28:21,15.08838353,0.0002288,53.2195,328.552,121.0213,239.1004,0.00022677,3.323e-05,0.0,0 STARLINK-3124,1 49456U 21104BA  23338.39469519  .00003323  00000-0  22677-3 0  9999,2 49456  53.2195 328.5520 0002288 121.0213 239.1004 15.08838353114032,6917.885,95.438,541.333,538.168,0.0
49456.0,STARLINK-3124,PAYLOAD,2023-12-05 02:57:35,15.08862113,0.0002103,53.2184,325.2822,117.527,242.5936,0.00091286,0.00014279,0.0,0 STARLINK-3124,1 49456U 21104BA  23339.12333222  .00014279  00000-0  91286-3 0  9996,2 49456  53.2184 325.2822 0002103 117.5270 242.5936 15.08862113115212,6917.813,95.436,541.133,538.223,0.0
49456.0,STARLINK-3124,PAYLOAD,2023-12-05 06:08:21,15.08881534,0.0002106,53.218,324.6876,112.5475,247.574,0.0012711,0.00020023,0.0,0 STARLINK-3124,1 49456U 21104BA  23339.25580742  .00020023  00000-0  12711-2 0  9990,2 49456  53.2180 324.6876 0002106 112.5475 247.5740 15.08881534115233,6917.753,95.435,541.075,538.162,0.0
